{"type": "FeatureCollection", "features": [{"type": "Feature", "properties": {"norad_id": 66516, "name": "STARLINK-35924", "group": "last-30-days", "lat": 37.630931261285916, "lon": 144.65508745329853, "alt_km": 438.5090910149456, "timestamp": "2025-12-18T13:51:48.377740+00:00", "meta": {"OBJECT_NAME": "STARLINK-35924", "OBJECT_ID": "2025-265A", "EPOCH": "2025-12-18T02:28:11.494848", "MEAN_MOTION": 15.40722625, "ECCENTRICITY": 0.0001092, "INCLINATION": 43.0004, "RA_OF_ASC_NODE": 23.2173, "ARG_OF_PERICENTER": 261.6063, "MEAN_ANOMALY": 98.467, "EPHEMERIS_TYPE": 0, "CLASSIFICATION_TYPE": "U", "NORAD_CAT_ID": 66516, "ELEMENT_SET_NO": 999, "REV_AT_EPOCH": 458, "BSTAR": 0.00090942531, "MEAN_MOTION_DOT": 0.00037902, "MEAN_MOTION_DDOT": 0}, "tle": {"line1": "1 66516U 25265A   25352.10291082  .00037902  00000+0  90943-3 0  9992", "line2": "2 66516  43.0004  23.2173 0001092 261.6063  98.4670 15.40722625  4586"}}, "geometry": {"type": "Point", "coordinates": [144.65508745329853, 37.630931261285916]}}, {"type": "Feature", "properties": {"norad_id": 66517, "name": "STARLINK-35937", "group": "last-30-days", "lat": -34.96206306651308, "lon": -28.589934626052802, "alt_km": 445.9742484190092, "timestamp": "2025-12-18T13:51:48.377804+00:00", "meta": {"OBJECT_NAME": "STARLINK-35937", "OBJECT_ID": "2025-265B", "EPOCH": "2025-12-18T08:00:01.999872", "MEAN_MOTION": 15.40674927, "ECCENTRICITY": 0.00017531, "INCLINATION": 43.0001, "RA_OF_ASC_NODE": 21.439, "ARG_OF_PERICENTER": 277.8679, "MEAN_ANOMALY": 108.4394, "EPHEMERIS_TYPE": 0, "CLASSIFICATION_TYPE": "U", "NORAD_CAT_ID": 66517, "ELEMENT_SET_NO": 999, "REV_AT_EPOCH": 589, "BSTAR": 0.0007559427, "MEAN_MOTION_DOT": 0.00031378, "MEAN_MOTION_DDOT": 0}, "tle": {"line1": "1 66517U 25265B   25352.33335648  .00031378  00000+0  75594-3 0  9991", "line2": "2 66517  43.0001  21.4390 0001753 277.8679 108.4394 15.40674927  5892"}}, "geometry": {"type": "Point", "coordinates": [-28.589934626052802, -34.96206306651308]}}, {"type": "Feature", "properties": {"norad_id": 66518, "name": "STARLINK-35962", "group": "last-30-days", "lat": -23.545006739895573, "lon": -131.8793138937224, "alt_km": 445.6369186055026, "timestamp": "2025-12-18T13:51:48.377822+00:00", "meta": {"OBJECT_NAME": "STARLINK-35962", "OBJECT_ID": "2025-265C", "EPOCH": "2025-12-18T08:00:01.999872", "MEAN_MOTION": 15.40681317, "ECCENTRICITY": 0.00013828, "INCLINATION": 43.0008, "RA_OF_ASC_NODE": 21.6501, "ARG_OF_PERICENTER": 258.1448, "MEAN_ANOMALY": 41.1243, "EPHEMERIS_TYPE": 0, "CLASSIFICATION_TYPE": "U", "NORAD_CAT_ID": 66518, "ELEMENT_SET_NO": 999, "REV_AT_EPOCH": 589, "BSTAR": 0.00047580421, "MEAN_MOTION_DOT": 0.00019611, "MEAN_MOTION_DDOT": 0}, "tle": {"line1": "1 66518U 25265C   25352.33335648  .00019611  00000+0  47580-3 0  9992", "line2": "2 66518  43.0008  21.6501 0001382 258.1448  41.1243 15.40681317  5897"}}, "geometry": {"type": "Point", "coordinates": [-131.8793138937224, -23.545006739895573]}}, {"type": "Feature", "properties": {"norad_id": 66519, "name": "STARLINK-35931", "group": "last-30-days", "lat": 6.451099453730445, "lon": 26.8332155181315, "alt_km": 413.0362088920747, "timestamp": "2025-12-18T13:51:48.377837+00:00", "meta": {"OBJECT_NAME": "STARLINK-35931", "OBJECT_ID": "2025-265D", "EPOCH": "2025-12-17T11:32:34.790208", "MEAN_MOTION": 15.5058288, "ECCENTRICITY": 0.00018413, "INCLINATION": 42.9979, "RA_OF_ASC_NODE": 26.2806, "ARG_OF_PERICENTER": 290.0106, "MEAN_ANOMALY": 70.0556, "EPHEMERIS_TYPE": 0, "CLASSIFICATION_TYPE": "U", "NORAD_CAT_ID": 66519, "ELEMENT_SET_NO": 999, "REV_AT_EPOCH": 449, "BSTAR": 0.0013422359, "MEAN_MOTION_DOT": 0.00079214, "MEAN_MOTION_DDOT": 0}, "tle": {"line1": "1 66519U 25265D   25351.48095822  .00079214  00000+0  13422-2 0  9997", "line2": "2 66519  42.9979  26.2806 0001841 290.0106  70.0556 15.50582880  4497"}}, "geometry": {"type": "Point", "coordinates": [26.8332155181315, 6.451099453730445]}}, {"type": "Feature", "properties": {"norad_id": 66520, "name": "STARLINK-35952", "group": "last-30-days", "lat": 9.342803905030697, "lon": -169.8108683990484, "alt_km": 442.2432388081461, "timestamp": "2025-12-18T13:51:48.377853+00:00", "meta": {"OBJECT_NAME": "STARLINK-35952", "OBJECT_ID": "2025-265E", "EPOCH": "2025-12-18T02:15:17.235936", "MEAN_MOTION": 15.40720208, "ECCENTRICITY": 8.039e-05, "INCLINATION": 42.9999, "RA_OF_ASC_NODE": 23.1465, "ARG_OF_PERICENTER": 242.2259, "MEAN_ANOMALY": 117.8516, "EPHEMERIS_TYPE": 0, "CLASSIFICATION_TYPE": "U", "NORAD_CAT_ID": 66520, "ELEMENT_SET_NO": 999, "REV_AT_EPOCH": 458, "BSTAR": 0.00093854046, "MEAN_MOTION_DOT": 0.00039129, "MEAN_MOTION_DDOT": 0}, "tle": {"line1": "1 66520U 25265E   25352.09394949  .00039129  00000+0  93854-3 0  9998", "line2": "2 66520  42.9999  23.1465 0000803 242.2259 117.8516 15.40720208  4586"}}, "geometry": {"type": "Point", "coordinates": [-169.8108683990484, 9.342803905030697]}}, {"type": "Feature", "properties": {"norad_id": 66521, "name": "STARLINK-35915", "group": "last-30-days", "lat": -40.734539729481384, "lon": -92.3107795563778, "alt_km": 446.64949160966717, "timestamp": "2025-12-18T13:51:48.377867+00:00", "meta": {"OBJECT_NAME": "STARLINK-35915", "OBJECT_ID": "2025-265F", "EPOCH": "2025-12-18T08:00:01.999872", "MEAN_MOTION": 15.40678655, "ECCENTRICITY": 0.00010584, "INCLINATION": 43.0008, "RA_OF_ASC_NODE": 21.5586, "ARG_OF_PERICENTER": 262.5016, "MEAN_ANOMALY": 74.1088, "EPHEMERIS_TYPE": 0, "CLASSIFICATION_TYPE": "U", "NORAD_CAT_ID": 66521, "ELEMENT_SET_NO": 999, "REV_AT_EPOCH": 589, "BSTAR": 0.00048740436, "MEAN_MOTION_DOT": 0.00020096, "MEAN_MOTION_DDOT": 0}, "tle": {"line1": "1 66521U 25265F   25352.33335648  .00020096  00000+0  48740-3 0  9994", "line2": "2 66521  43.0008  21.5586 0001058 262.5016  74.1088 15.40678655  5897"}}, "geometry": {"type": "Point", "coordinates": [-92.3107795563778, -40.734539729481384]}}, {"type": "Feature", "properties": {"norad_id": 66522, "name": "STARLINK-35946", "group": "last-30-days", "lat": -13.43168419357375, "lon": 5.090051263923033, "alt_km": 443.1989799077928, "timestamp": "2025-12-18T13:51:48.377881+00:00", "meta": {"OBJECT_NAME": "STARLINK-35946", "OBJECT_ID": "2025-265G", "EPOCH": "2025-12-18T08:00:01.999872", "MEAN_MOTION": 15.42380882, "ECCENTRICITY": 0.00016782, "INCLINATION": 43, "RA_OF_ASC_NODE": 21.3501, "ARG_OF_PERICENTER": 280.128, "MEAN_ANOMALY": 142.4754, "EPHEMERIS_TYPE": 0, "CLASSIFICATION_TYPE": "U", "NORAD_CAT_ID": 66522, "ELEMENT_SET_NO": 999, "REV_AT_EPOCH": 589, "BSTAR": -0.052790953, "MEAN_MOTION_DOT": -0.02069632, "MEAN_MOTION_DDOT": 0}, "tle": {"line1": "1 66522U 25265G   25352.33335648 -.02069632  00000+0 -52791-1 0  9997", "line2": "2 66522  43.0000  21.3501 0001678 280.1280 142.4754 15.42380882  5895"}}, "geometry": {"type": "Point", "coordinates": [5.090051263923033, -13.43168419357375]}}, {"type": "Feature", "properties": {"norad_id": 66523, "name": "STARLINK-35969", "group": "last-30-days", "lat": 11.437932252856454, "lon": 32.389636426556685, "alt_km": 412.5558319044394, "timestamp": "2025-12-18T13:51:48.377893+00:00", "meta": {"OBJECT_NAME": "STARLINK-35969", "OBJECT_ID": "2025-265H", "EPOCH": "2025-12-18T02:58:10.428384", "MEAN_MOTION": 15.50609884, "ECCENTRICITY": 0.00030087, "INCLINATION": 43.0005, "RA_OF_ASC_NODE": 22.5057, "ARG_OF_PERICENTER": 295.2346, "MEAN_ANOMALY": 64.8202, "EPHEMERIS_TYPE": 0, "CLASSIFICATION_TYPE": "U", "NORAD_CAT_ID": 66523, "ELEMENT_SET_NO": 999, "REV_AT_EPOCH": 459, "BSTAR": 0.00099278662, "MEAN_MOTION_DOT": 0.00058406, "MEAN_MOTION_DDOT": 0}, "tle": {"line1": "1 66523U 25265H   25352.12373181  .00058406  00000+0  99279-3 0  9996", "line2": "2 66523  43.0005  22.5057 0003008 295.2346  64.8202 15.50609884  4595"}}, "geometry": {"type": "Point", "coordinates": [32.389636426556685, 11.437932252856454]}}, {"type": "Feature", "properties": {"norad_id": 66524, "name": "STARLINK-35687", "group": "last-30-days", "lat": 25.21073683517574, "lon": 170.0739801935409, "alt_km": 441.11842425141185, "timestamp": "2025-12-18T13:51:48.377906+00:00", "meta": {"OBJECT_NAME": "STARLINK-35687", "OBJECT_ID": "2025-265J", "EPOCH": "2025-12-18T02:21:44.142912", "MEAN_MOTION": 15.40733185, "ECCENTRICITY": 0.00024795, "INCLINATION": 43.0018, "RA_OF_ASC_NODE": 23.1803, "ARG_OF_PERICENTER": 278.1334, "MEAN_ANOMALY": 81.9241, "EPHEMERIS_TYPE": 0, "CLASSIFICATION_TYPE": "U", "NORAD_CAT_ID": 66524, "ELEMENT_SET_NO": 999, "REV_AT_EPOCH": 458, "BSTAR": 0.0010430379, "MEAN_MOTION_DOT": 0.00043566, "MEAN_MOTION_DDOT": 0}, "tle": {"line1": "1 66524U 25265J   25352.09842758  .00043566  00000+0  10430-2 0  9996", "line2": "2 66524  43.0018  23.1803 0002479 278.1334  81.9241 15.40733185  4587"}}, "geometry": {"type": "Point", "coordinates": [170.0739801935409, 25.21073683517574]}}, {"type": "Feature", "properties": {"norad_id": 66525, "name": "STARLINK-35975", "group": "last-30-days", "lat": -7.550593829176439, "lon": -151.52594548692508, "alt_km": 443.91498440332725, "timestamp": "2025-12-18T13:51:48.377919+00:00", "meta": {"OBJECT_NAME": "STARLINK-35975", "OBJECT_ID": "2025-265K", "EPOCH": "2025-12-18T03:42:11.293632", "MEAN_MOTION": 15.40729115, "ECCENTRICITY": 0.00012037, "INCLINATION": 42.9982, "RA_OF_ASC_NODE": 22.7362, "ARG_OF_PERICENTER": 228.1925, "MEAN_ANOMALY": 131.8829, "EPHEMERIS_TYPE": 0, "CLASSIFICATION_TYPE": "U", "NORAD_CAT_ID": 66525, "ELEMENT_SET_NO": 999, "REV_AT_EPOCH": 459, "BSTAR": 0.0011137883, "MEAN_MOTION_DOT": 0.00046551, "MEAN_MOTION_DDOT": 0}, "tle": {"line1": "1 66525U 25265K   25352.15429738  .00046551  00000+0  11138-2 0  9996", "line2": "2 66525  42.9982  22.7362 0001203 228.1925 131.8829 15.40729115  4592"}}, "geometry": {"type": "Point", "coordinates": [-151.52594548692508, -7.550593829176439]}}]}